STRIX-4                 
1 60352U 24137A   26068.65404516  .00020530  00000+0  71820-3 0  9996
2 60352  43.0134 129.8162 0016840   5.2738 354.8289 15.29026223 88766
STARLINK-35994          
1 66818U 25278AD  26068.19275623  .00035072  00000+0  12778-2 0  9993
2 66818  43.0009 117.1212 0001303 187.8915 172.1916 15.27583304 15133
